
# C41 (GNSS)
1 44864U 19090A   25227.16812816 -.00000025  00000+0  00000+0 0  9992
2 44864  56.2859  72.9253 0015622 290.2654 273.5271  1.86231386 38539

# C42 (GNSS)
1 44865U 19090B   25226.49864663 -.00000022  00000+0  00000+0 0  9992
2 44865  56.2870  72.9817 0013463 306.1456 258.4226  1.86231326 38498

# C60 (GNSS)
1 45344U 20017A   25227.55332384 -.00000144  00000+0  00000+0 0  9999
2 45344   2.9749  41.5916 0001780 125.5632  76.2757  1.00270742 20198

# C61 (GNSS)
1 45807U 20040A   25227.63058174 -.00000357  00000+0  00000+0 0  9996
2 45807   1.6984  65.1779 0004462 337.3360 259.2227  1.00277030 19009

# C62 (GNSS)
1 56564U 23066A   25227.49785693 -.00000112  00000+0  00000+0 0  9995
2 56564   1.0874 294.6095 0006345 203.4086 165.3503  1.00272379  8332

# C50 (GNSS)
1 58654U 23207A   25227.23374540 -.00000028  00000+0  00000+0 0  9997
2 58654  55.4757  72.6452 0001269  15.0661 345.0068  1.86229806 11141

# E24 (GNSS)
1 40889U 15045A   25224.69283368  .00000069  00000+0  00000+0 0  9997
2 40889  55.0458 230.1252 0003190  10.6800 349.3397  1.70473362 61751

# E30 (GNSS)
1 40890U 15045B   25226.08666568  .00000070  00000+0  00000+0 0  9993
2 40890  55.0482 230.0818 0001782 327.6768  32.3242  1.70473365 61803

# E07 (GNSS)
1 41859U 16069A   25227.13552000 -.00000011  00000+0  00000+0 0  9994
2 41859  55.3062 109.5634 0003940 327.1108  32.9387  1.70473649 54402

# E08 (GNSS)
1 41175U 15079B   25226.47571828 -.00000005  00000+0  00000+0 0  9993
2 41175  55.6351 109.6805 0003682  25.9282 334.1677  1.70473525 60125

# E09 (GNSS)
1 41174U 15079A   25225.66901952  .00000001  00000+0  00000+0 0  9992
2 41174  55.6370 109.7054 0003854 354.8097   5.2675  1.70473697 60114

# E01 (GNSS)
1 41550U 16030B   25225.68352117  .00000070  00000+0  00000+0 0  9999
2 41550  55.1965 230.1480 0004459 242.7489 117.2176  1.70473709 57425

# E02 (GNSS)
1 41549U 16030A   25225.42579009  .00000070  00000+0  00000+0 0  9990
2 41549  55.1977 230.1570 0003275 313.3797  46.6050  1.70473412 57425

# E03 (GNSS)
1 41860U 16069B   25226.98935441 -.00000010  00000+0  00000+0 0  9991
2 41860  55.3035 109.5630 0003648  16.5522 343.5344  1.70473796 54434

# E04 (GNSS)
1 41861U 16069C   25226.77055591 -.00000008  00000+0  00000+0 0  9995
2 41861  55.3059 109.5765 0003222 306.3972  53.6489  1.70474180 54423

# E05 (GNSS)
1 41862U 16069D   25226.91637795 -.00000009  00000+0  00000+0 0  9995
2 41862  55.3046 109.5656 0002274 323.8664  36.1933  1.70473801 54426

# E21 (GNSS)
1 43055U 17079A   25226.81942072  .00000072  00000+0  00000+0 0  9998
2 43055  55.1749 229.9347 0003597 264.3861  95.5856  1.70474110 47767

# E25 (GNSS)
1 43056U 17079B   25227.11079197  .00000072  00000+0  00000+0 0  9992
2 43056  55.1750 229.9266 0004877 274.2100  85.7476  1.70474218 47755

# E27 (GNSS)
1 43057U 17079C   25225.57169262  .00000070  00000+0  00000+0 0  9992
2 43057  55.1731 229.9672 0004097 286.0439  73.9225  1.70474160 47742

# E31 (GNSS)
1 43058U 17079D   25226.96493349  .00000072  00000+0  00000+0 0  9995
2 43058  55.1735 229.9263 0005360 271.1421  88.8094  1.70474152 47800

# E36 (GNSS)
1 43566U 18060C   25226.72151519 -.00000089  00000+0  00000+0 0  9993
2 43566  57.2606 350.0632 0002413 271.5627  88.4195  1.70475994 43964

# E13 (GNSS)
1 43567U 18060D   25225.76920688 -.00000086  00000+0  00000+0 0  9995
2 43567  57.2605 350.0894 0002883 264.4985  95.4783  1.70475666 43937

# E15 (GNSS)
1 43564U 18060A   25226.86765118 -.00000090  00000+0  00000+0 0  9994
2 43564  57.2575 350.0548 0003333 267.2395  92.7322  1.70476044 43944

# E33 (GNSS)
1 43565U 18060B   25225.91364576 -.00000086  00000+0  00000+0 0  9998
2 43565  57.2617 350.0834 0003727 230.1852 129.7918  1.70475801 43979

# E34 (GNSS)
1 49809U 21116A   25227.37583949 -.00000092  00000+0  00000+0 0  9997
2 49809  57.2501 349.9374 0003200 200.6411 156.0382  1.70475910 22968

# E10 (GNSS)
1 49810U 21116B   25225.43628638 -.00000085  00000+0  00000+0 0  9991
2 49810  57.2519 349.9885 0002559 191.0042 167.8958  1.70475994 22955

# R01 (GNSS)
1 36111U 09070A   25226.15822385  .00000004  00000+0  00000+0 0  9991
2 36111  64.8286  81.4598 0002592 345.1424 167.6945  2.13103660121884

# R02 (GNSS)
1 39155U 13019A   25226.95392277  .00000001  00000+0  00000+0 0  9997
2 39155  65.2467  83.8945 0022106 228.6502 131.2374  2.13104518 95750

# R03 (GNSS)
1 37867U 11064A   25227.25458640 -.00000001  00000+0  00000+0 0  9995
2 37867  65.0934  83.2129 0021739 233.0113 310.2668  2.13101450107247

# R04 (GNSS)
1 44850U 19088A   25227.07098681  .00000000  00000+0  00000+0 0  9992
2 44850  65.3926  83.9596 0011611 251.4494 108.5024  2.13101927 44175

# R05 (GNSS)
1 43508U 18053A   25227.12655038  .00000000  00000+0  00000+0 0  9993
2 43508  65.4050  84.1289 0006694 220.4366 139.5916  2.13102137 55758

# R06 (GNSS)
1 36112U 09070B   25226.49188758  .00000002  00000+0  00000+0 0  9996
2 36112  64.8140  81.2984 0005146 131.9522  47.1237  2.13101125121890

# R07 (GNSS)
1 37868U 11064B   25224.17681353  .00000021  00000+0  00000+0 0  9994
2 37868  65.0984  83.3938 0018787 234.0057 288.4142  2.13102998107172

# R08 (GNSS)
1 37869U 11064C   25226.13828662  .00000005  00000+0  00000+0 0  9991
2 37869  65.1064  83.3460 0023785 249.7149 293.9853  2.13101787107212

# R09 (GNSS)
1 40315U 14075A   25227.34351125  .00000087  00000+0  00000+0 0  9995
2 40315  63.6182 200.9579 0021701 211.5061 148.3558  2.13101292 83332

# R10 (GNSS)
1 32395U 07065C   25226.12529274  .00000088  00000+0  00000+0 0  9993
2 32395  64.3273 202.3405 0016832 353.9784 110.9020  2.13099994137172

# R11 (GNSS)
1 46805U 20075A   25226.98459420  .00000091  00000+0  00000+0 0  9993
2 46805  64.5996 202.6928 0008950 240.4533 119.4501  2.13099925 37388

# R12 (GNSS)
1 44299U 19030A   25227.14023144  .00000091  00000+0  00000+0 0  9996
2 44299  64.3695 202.9198 0013222 277.3260 152.5576  2.13101944 48403

# R13 (GNSS)
1 32393U 07065A   25227.33108927  .00000090  00000+0  00000+0 0  9996
2 32393  64.3187 202.2308 0000768 349.8424 186.4657  2.13101196137285

# R14 (GNSS)
1 42939U 17055A   25227.16600229  .00000090  00000+0  00000+0 0  9996
2 42939  64.0801 202.2987 0010281 240.7047 119.1851  2.13101825 61459

# R15 (GNSS)
1 43687U 18086A   25226.28561276  .00000089  00000+0  00000+0 0  9990
2 43687  64.2959 202.9555 0011597 257.9860 101.8749  2.13101887 52742

# R16 (GNSS)
1 54377U 22161A   25227.28364446  .00000091  00000+0  00000+0 0  9991
2 54377  64.7413 202.8638 0011613 224.3539 135.5466  2.13101955 21114

# R17 (GNSS)
1 41330U 16008A   25227.32745151 -.00000065  00000+0  00000+0 0  9992
2 41330  65.1992 323.4936 0012604 205.8947 154.0851  2.13102484 74104

# R18 (GNSS)
1 39620U 14012A   25227.38099950 -.00000066  00000+0  00000+0 0  9990
2 39620  65.4719 324.3184 0011038 312.7401  47.2086  2.13103124 88729

# R19 (GNSS)
1 54031U 22130A   25227.43914806 -.00000068  00000+0  00000+0 0  9997
2 54031  64.4464 325.3389 0012988 183.7114 176.3192  2.13101528 22162

# R20 (GNSS)
1 32276U 07052B   25227.50331696 -.00000068  00000+0  00000+0 0  9998
2 32276  65.7604 326.3316 0008052 314.9413  47.2256  2.13103029138575

# R21 (GNSS)
1 40001U 14032A   25225.20850170 -.00000052  00000+0  00000+0 0  9990
2 40001  65.4090 324.1638 0008702 198.3801 161.6337  2.13105780 86890

# R22 (GNSS)
1 52984U 22075A   25225.27396959 -.00000055  00000+0  00000+0 0  9999
2 52984  64.4751 325.3214 0011848 271.7640  88.1439  2.13102109 24150

# R23 (GNSS)
1 36402U 10007C   25225.41223056 -.00000054  00000+0  00000+0 0  9990
2 36402  65.5943 324.8698 0001712 185.1879 243.2517  2.13106153120176

# R24 (GNSS)
1 45358U 20018A   25226.79790533 -.00000062  00000+0  00000+0 0  9993
2 45358  64.5363 323.1760 0010561 234.1431 125.8032  2.13102373 42130

# R25 (GNSS)
1 32275U 07052A   25227.42865187 -.00000067  00000+0  00000+0 0  9994
2 32275  65.7450 326.2123 0004344 218.2153 141.7931  2.13104052138549
